$$SOE
2459580.500000000, A.D. 2022-Jan-01 00:00:00.0000, -2.904530782206995E+08, -2.752810634398206E+08, -3.804979223950207E+04,
2459587.500000000, A.D. 2022-Jan-08 00:00:00.0000, -2.818329207000656E+08, -2.803939267987381E+08, 5.871660156710893E+05,
2459594.500000000, A.D. 2022-Jan-15 00:00:00.0000, -2.729950697084131E+08, -2.852901321520414E+08, 1.211927272077575E+06,
2459601.500000000, A.D. 2022-Jan-22 00:00:00.0000, -2.639420081593305E+08, -2.899613594037400E+08, 1.835731496212348E+06,
2459608.500000000, A.D. 2022-Jan-29 00:00:00.0000, -2.546764453686928E+08, -2.943990613949853E+08, 2.458055622128665E+06,
2459615.500000000, A.D. 2022-Feb-05 00:00:00.0000, -2.452013393586131E+08, -2.985944570968775E+08, 3.078354897441313E+06,
2459622.500000000, A.D. 2022-Feb-12 00:00:00.0000, -2.355199186928255E+08, -3.025385261431181E+08, 3.696061433175281E+06,
2459629.500000000, A.D. 2022-Feb-19 00:00:00.0000, -2.256357053081893E+08, -3.062220024358847E+08, 4.310582718469113E+06,
2459636.500000000, A.D. 2022-Feb-26 00:00:00.0000, -2.155525398010703E+08, -3.096353676675585E+08, 4.921300160419911E+06,
2459643.500000000, A.D. 2022-Mar-05 00:00:00.0000, -2.052746091640818E+08, -3.127688455165780E+08, 5.527567583543584E+06,
2459650.500000000, A.D. 2022-Mar-12 00:00:00.0000, -1.948064769138517E+08, -3.156123967511553E+08, 6.128709663219750E+06,
2459657.500000000, A.D. 2022-Mar-19 00:00:00.0000, -1.841531157099639E+08, -3.181557154115459E+08, 6.724020290086418E+06,
2459664.500000000, A.D. 2022-Mar-26 00:00:00.0000, -1.733199426221806E+08, -3.203882263082848E+08, 7.312760865724012E+06,
2459671.500000000, A.D. 2022-Apr-02 00:00:00.0000, -1.623128571624857E+08, -3.222990841583489E+08, 7.894158523642436E+06,
2459678.500000000, A.D. 2022-Apr-09 00:00:00.0000, -1.511382819935590E+08, -3.238771746597002E+08, 8.467404257708997E+06,
2459685.500000000, A.D. 2022-Apr-16 00:00:00.0000, -1.398032061337864E+08, -3.251111172027864E+08, 9.031650987324417E+06,
2459692.500000000, A.D. 2022-Apr-23 00:00:00.0000, -1.283152320941810E+08, -3.259892685455069E+08, 9.586011775258005E+06,
2459699.500000000, A.D. 2022-Apr-30 00:00:00.0000, -1.166826289705980E+08, -3.264997301765402E+08, 1.012955820029999E+07,
2459706.500000000, A.D. 2022-May-07 00:00:00.0000, -1.049143885661993E+08, -3.266303618979005E+08, 1.066131846132503E+07,
2459713.500000000, A.D. 2022-May-14 00:00:00.0000, -9.302028326949397E+07, -3.263687992258800E+08, 1.118027535855061E+07,
2459720.500000000, A.D. 2022-May-21 00:00:00.0000, -8.101092779424088E+07, -3.257024745700486E+08, 1.168536443179829E+07,
2459727.500000000, A.D. 2022-May-28 00:00:00.0000, -6.889784527715360E+07, -3.246186439564521E+08, 1.217547225975573E+07,
2459734.500000000, A.D. 2022-Jun-04 00:00:00.0000, -5.669353739701544E+07, -3.231044205131447E+08, 1.264943491545768E+07,
2459741.500000000, A.D. 2022-Jun-11 00:00:00.0000, -4.441155821246675E+07, -3.211468157255383E+08, 1.310603661979863E+07,
2459748.500000000, A.D. 2022-Jun-18 00:00:00.0000, -3.206659139564477E+07, -3.187327895680447E+08, 1.354400865558630E+07,
2459755.500000000, A.D. 2022-Jun-25 00:00:00.0000, -1.967453039114142E+07, -3.158493107782151E+08, 1.396202861379506E+07,
2459762.500000000, A.D. 2022-Jul-02 00:00:00.0000, -7.252560731735323E+06, -3.124834286823085E+08, 1.435872004534964E+07,
2459769.500000000, A.D. 2022-Jul-09 00:00:00.0000, 5.180756750824390E+06, -3.086223578401924E+08, 1.473265260343370E+07,
2459776.500000000, A.D. 2022-Jul-16 00:00:00.0000, 1.760540292067567E+07, -3.042535759583858E+08, 1.508234289307728E+07,
2459783.500000000, A.D. 2022-Jul-23 00:00:00.0000, 2.999981683112060E+07, -2.993649365832373E+08, 1.540625637724693E+07,
2459790.500000000, A.D. 2022-Jul-30 00:00:00.0000, 4.234081368444119E+07, -2.939448015323847E+08, 1.570281021717538E+07,
2459797.500000000, A.D. 2022-Aug-06 00:00:00.0000, 5.460351019452816E+07, -2.879821939799027E+08, 1.597037694805270E+07,
2459804.500000000, A.D. 2022-Aug-13 00:00:00.0000, 6.676125937825222E+07, -2.814669708833975E+08, 1.620728948678717E+07,
2459811.500000000, A.D. 2022-Aug-20 00:00:00.0000, 7.878559662313713E+07, -2.743900164703384E+08, 1.641184778533885E+07,
2459818.500000000, A.D. 2022-Aug-27 00:00:00.0000, 9.064620112971351E+07, -2.667434583657490E+08, 1.658232728492975E+07,
2459825.500000000, A.D. 2022-Sep-03 00:00:00.0000, 1.023108776432583E+08, -2.585209068111756E+08, 1.671698936437172E+07,
2459832.500000000, A.D. 2022-Sep-10 00:00:00.0000, 1.137455638595071E+08, -2.497177165826595E+08, 1.681409399579997E+07,
2459839.500000000, A.D. 2022-Sep-17 00:00:00.0000, 1.249143694053163E+08, -2.403312703098926E+08, 1.687191480552155E+07,
2459846.500000000, A.D. 2022-Sep-24 00:00:00.0000, 1.357796527995551E+08, -2.303612807729913E+08, 1.688875669563977E+07,
2459853.500000000, A.D. 2022-Oct-01 00:00:00.0000, 1.463021432726041E+08, -2.198101083030095E+08, 1.686297611543919E+07,
2459860.500000000, A.D. 2022-Oct-08 00:00:00.0000, 1.564411145043858E+08, -2.086830872017325E+08, 1.679300402515507E+07,
2459867.500000000, A.D. 2022-Oct-15 00:00:00.0000, 1.661546156355096E+08, -1.969888525288920E+08, 1.667737166754450E+07,
2459874.500000000, A.D. 2022-Oct-22 00:00:00.0000, 1.753997628079610E+08, -1.847396594405679E+08, 1.651473900566124E+07,
2459881.500000000, A.D. 2022-Oct-29 00:00:00.0000, 1.841330977406122E+08, -1.719516860864385E+08, 1.630392501855341E+07,
2459888.500000000, A.D. 2022-Nov-05 00:00:00.0000, 1.923110173497436E+08, -1.586453037839794E+08, 1.604393933454497E+07,
2459895.500000000, A.D. 2022-Nov-12 00:00:00.0000, 1.998902715441321E+08, -1.448452980345509E+08, 1.573401473298622E+07,
2459902.500000000, A.D. 2022-Nov-19 00:00:00.0000, 2.068285240516239E+08, -1.305810251033358E+08, 1.537363954240101E+07,
2459909.500000000, A.D. 2022-Nov-26 00:00:00.0000, 2.130849680042384E+08, -1.158864880972519E+08, 1.496258872369978E+07,
2459916.500000000, A.D. 2022-Dec-03 00:00:00.0000, 2.186209834133895E+08, -1.008003169515359E+08, 1.450095230711720E+07,
2459923.500000000, A.D. 2022-Dec-10 00:00:00.0000, 2.234008189733507E+08, -8.536563886965626E+07, 1.398915976290930E+07,
2459930.500000000, A.D. 2022-Dec-17 00:00:00.0000, 2.273922763764222E+08, -6.962982938484193E+07, 1.342799886374513E+07,
2459937.500000000, A.D. 2022-Dec-24 00:00:00.0000, 2.305673719868599E+08, -5.364413921884750E+07, 1.281862766489513E+07,
2459944.500000000, A.D. 2022-Dec-31 00:00:00.0000, 2.329029488496125E+08, -3.746319807297962E+07, 1.216257841027637E+07,
2459951.500000000, A.D. 2023-Jan-07 00:00:00.0000, 2.343812114309528E+08, -2.114440253361477E+07, 1.146175257786376E+07,
2459958.500000000, A.D. 2023-Jan-14 00:00:00.0000, 2.349901551318034E+08, -4.747202898578499E+06, 1.071840685352675E+07,
2459965.500000000, A.D. 2023-Jan-21 00:00:00.0000, 2.347238677467007E+08, 1.166768588651987E+07, 9.935129879189171E+06,
2459972.500000000, A.D. 2023-Jan-28 00:00:00.0000, 2.335826900954511E+08, 2.803912145634692E+07, 9.114809974856740E+06,
2459979.500000000, A.D. 2023-Feb-04 00:00:00.0000, 2.315732264721140E+08, 4.430639118959265E+07, 8.260595148867961E+06,
2459986.500000000, A.D. 2023-Feb-11 00:00:00.0000, 2.287082021439400E+08, 6.041005637580959E+07, 7.375847024472412E+06,
2459993.500000000, A.D. 2023-Feb-18 00:00:00.0000, 2.250061751704523E+08, 7.629275079557133E+07, 6.464090435482882E+06,
2460000.500000000, A.D. 2023-Feb-25 00:00:00.0000, 2.204911178155851E+08, 9.189990506474429E+07, 5.528960676201969E+06,
2460007.500000000, A.D. 2023-Mar-04 00:00:00.0000, 2.151918889664815E+08, 1.071803734372475E+08, 4.574150466621451E+06,
2460014.500000000, A.D. 2023-Mar-11 00:00:00.0000, 2.091416232615897E+08, 1.220869462279296E+08, 3.603358578662291E+06,
2460021.500000000, A.D. 2023-Mar-18 00:00:00.0000, 2.023770648403535E+08, 1.365767381236680E+08, 2.620241812411733E+06,
2460028.500000000, A.D. 2023-Mar-25 00:00:00.0000, 1.949378738694841E+08, 1.506114497821590E+08, 1.628371662166357E+06,
2460035.500000000, A.D. 2023-Apr-01 00:00:00.0000, 1.868659324683015E+08, 1.641575070207607E+08, 6.311966460813805E+05,
2460042.500000000, A.D. 2023-Apr-08 00:00:00.0000, 1.782046723946824E+08, 1.771860880495838E+08, -3.679889569708481E+05,
2460049.500000000, A.D. 2023-Apr-15 00:00:00.0000, 1.689984409388745E+08, 1.896730508503446E+08, -1.366069616519719E+06,
2460056.500000000, A.D. 2023-Apr-22 00:00:00.0000, 1.592919210415178E+08, 2.015987733977422E+08, -2.360126820857882E+06,
2460063.500000000, A.D. 2023-Apr-29 00:00:00.0000, 1.491296179330091E+08, 2.129479258169979E+08, -3.347451543940037E+06,
2460070.500000000, A.D. 2023-May-06 00:00:00.0000, 1.385554157411463E+08, 2.237091930502856E+08, -4.325551158904344E+06,
2460077.500000000, A.D. 2023-May-13 00:00:00.0000, 1.276122045556722E+08, 2.338749629850124E+08, -5.292151459205955E+06,
2460084.500000000, A.D. 2023-May-20 00:00:00.0000, 1.163415766107240E+08, 2.434409937963936E+08, -6.245194588031217E+06,
2460091.500000000, A.D. 2023-May-27 00:00:00.0000, 1.047835879002299E+08, 2.524060727282751E+08, -7.182833645299166E+06,
2460098.500000000, A.D. 2023-Jun-03 00:00:00.0000, 9.297657980678529E+07, 2.607716764408850E+08, -8.103424695100099E+06,
2460105.500000000, A.D. 2023-Jun-10 00:00:00.0000, 8.095705432069388E+07, 2.685416408774295E+08, -9.005516839514807E+06,
2460112.500000000, A.D. 2023-Jun-17 00:00:00.0000, 6.875959604469690E+07, 2.757218465562621E+08, -9.887840960463166E+06,
2460119.500000000, A.D. 2023-Jun-24 00:00:00.0000, 5.641683437496794E+07, 2.823199235302659E+08, -1.074929766073850E+07,
2460126.500000000, A.D. 2023-Jul-01 00:00:00.0000, 4.395943945047920E+07, 2.883449795075430E+08, -1.158894478321709E+07,
2460133.500000000, A.D. 2023-Jul-08 00:00:00.0000, 3.141614401622044E+07, 2.938073533614745E+08, -1.240598463186742E+07,
2460140.500000000, A.D. 2023-Jul-15 00:00:00.0000, 1.881378433260878E+07, 2.987183915865487E+08, -1.319975127590451E+07,
2460147.500000000, A.D. 2023-Jul-22 00:00:00.0000, 6.177358703014480E+06, 3.030902463105792E+08, -1.396969854598078E+07,
$$EOE